{
  "type": "FeatureCollection",
  "name": "new_zealand_simplified_benchmark",
  "features": [
    {
      "type": "Feature",
      "properties": {
        "name": "New Zealand simplified benchmark polygon",
        "purpose": "software benchmark only; not an authoritative boundary"
      },
      "geometry": {
        "type": "MultiPolygon",
        "coordinates": [
          [
            [
              [172.80, -40.60],
              [174.05, -41.05],
              [174.30, -41.75],
              [173.85, -42.55],
              [173.35, -43.20],
              [172.75, -43.65],
              [171.60, -44.10],
              [170.75, -44.55],
              [169.75, -45.20],
              [168.40, -46.05],
              [167.20, -46.70],
              [166.50, -46.35],
              [166.75, -45.60],
              [167.45, -44.70],
              [168.20, -43.85],
              [169.05, -42.95],
              [170.15, -42.20],
              [171.30, -41.65],
              [172.20, -41.05],
              [172.80, -40.60]
            ]
          ],
          [
            [
              [174.65, -41.35],
              [175.20, -40.80],
              [176.15, -40.15],
              [176.85, -39.45],
              [177.65, -39.10],
              [178.35, -38.55],
              [178.00, -37.70],
              [177.15, -37.45],
              [176.35, -37.60],
              [175.80, -36.95],
              [175.85, -36.30],
              [174.80, -36.15],
              [174.45, -35.45],
              [173.05, -34.45],
              [172.60, -34.85],
              [173.05, -35.75],
              [173.90, -36.45],
              [174.30, -37.35],
              [174.55, -38.30],
              [174.85, -39.10],
              [174.40, -40.05],
              [174.65, -41.35]
            ]
          ],
          [
            [
              [167.55, -46.70],
              [168.35, -46.60],
              [168.30, -47.15],
              [167.75, -47.30],
              [167.55, -46.70]
            ]
          ],
          [
            [
              [-176.85, -43.70],
              [-175.90, -43.55],
              [-175.65, -44.05],
              [-176.35, -44.40],
              [-176.85, -43.70]
            ]
          ]
        ]
      }
    }
  ]
}
