{"type":"FeatureCollection","name":"rHEALPix polar overlay outside the Web Mercator tile extent","metadata":{"overlap_latitude":84.8,"purpose":"Preserve polar geometry beyond the PMTiles latitude limit","loading":"default compacted view"},"features":[{"type":"Feature","properties":{"cell":"S46","resolution":2,"kind":"compact"},"geometry":{"type":"Polygon","coordinates":[[[67.5,-79.635222],[90.0,-84.823338],[112.5,-79.635222],[120.0,-74.424007],[105.0,-74.424007],[90.0,-74.424007],[75.0,-74.424007],[60.0,-74.424007],[67.5,-79.635222]]]}},{"type":"Feature","properties":{"cell":"S47","resolution":2,"kind":"compact"},"geometry":{"type":"Polygon","coordinates":[[[22.5,-79.635222],[0.0,-84.823338],[45.0,-84.823338],[90.0,-84.823338],[67.5,-79.635222],[60.0,-74.424007],[45.0,-74.424007],[30.0,-74.424007],[22.5,-79.635222]]]}},{"type":"Feature","properties":{"cell":"S418","resolution":3,"kind":"compact"},"geometry":{"type":"Polygon","coordinates":[[[-123.75,-83.095808],[-120.0,-84.823338],[-105.0,-84.823338],[-90.0,-84.823338],[-101.25,-83.095808],[-108.0,-81.366579],[-117.0,-81.366579],[-126.0,-81.366579],[-123.75,-83.095808]]]}},{"type":"Feature","properties":{"cell":"S426","resolution":3,"kind":"compact"},"geometry":{"type":"Polygon","coordinates":[[[-101.25,-83.095808],[-90.0,-84.823338],[-78.75,-83.095808],[-72.0,-81.366579],[-81.0,-81.366579],[-90.0,-81.366579],[-99.0,-81.366579],[-108.0,-81.366579],[-101.25,-83.095808]]]}},{"type":"Feature","properties":{"cell":"S435","resolution":3,"kind":"compact"},"geometry":{"type":"Polygon","coordinates":[[[123.75,-83.095808],[120.0,-84.823338],[135.0,-84.823338],[150.0,-84.823338],[146.25,-83.095808],[144.0,-81.366579],[135.0,-81.366579],[126.0,-81.366579],[123.75,-83.095808]]]}},{"type":"Feature","properties":{"cell":"S438","resolution":3,"kind":"compact"},"geometry":{"type":"Polygon","coordinates":[[[101.25,-83.095808],[90.0,-84.823338],[105.0,-84.823338],[120.0,-84.823338],[123.75,-83.095808],[126.0,-81.366579],[117.0,-81.366579],[108.0,-81.366579],[101.25,-83.095808]]]}},{"type":"Feature","properties":{"cell":"S442","resolution":3,"kind":"compact"},"geometry":{"type":"Polygon","coordinates":[[[-112.5,-86.549597],[-90.0,-88.27501],[-67.5,-86.549597],[-60.0,-84.823338],[-75.0,-84.823338],[-90.0,-84.823338],[-105.0,-84.823338],[-120.0,-84.823338],[-112.5,-86.549597]]]}},{"type":"Feature","properties":{"cell":"S443","resolution":3,"kind":"compact"},"geometry":{"type":"Polygon","coordinates":[[[112.5,-86.549597],[90.0,-88.27501],[135.0,-88.27501],[180.0,-88.27501],[157.5,-86.549597],[150.0,-84.823338],[135.0,-84.823338],[120.0,-84.823338],[112.5,-86.549597]]]}},{"type":"Feature","properties":{"cell":"S444","resolution":3,"kind":"compact"},"geometry":{"type":"Polygon","coordinates":[[[180.0,-88.27501],[170.0,-88.27501],[160.0,-88.27501],[150.0,-88.27501],[140.0,-88.27501],[130.0,-88.27501],[120.0,-88.27501],[110.0,-88.27501],[100.0,-88.27501],[90.0,-88.27501],[80.0,-88.27501],[70.0,-88.27501],[60.0,-88.27501],[50.0,-88.27501],[40.0,-88.27501],[30.0,-88.27501],[20.0,-88.27501],[10.0,-88.27501],[0.0,-88.27501],[-10.0,-88.27501],[-20.0,-88.27501],[-30.0,-88.27501],[-40.0,-88.27501],[-50.0,-88.27501],[-60.0,-88.27501],[-70.0,-88.27501],[-80.0,-88.27501],[-90.0,-88.27501],[-100.0,-88.27501],[-110.0,-88.27501],[-120.0,-88.27501],[-130.0,-88.27501],[-140.0,-88.27501],[-150.0,-88.27501],[-160.0,-88.27501],[-170.0,-88.27501],[-180.0,-88.27501],[-180.0,-90.0],[180.0,-90.0],[180.0,-88.27501]]]}},{"type":"Feature","properties":{"cell":"S445","resolution":3,"kind":"compact"},"geometry":{"type":"Polygon","coordinates":[[[-67.5,-86.549597],[-90.0,-88.27501],[-45.0,-88.27501],[0.0,-88.27501],[-22.5,-86.549597],[-30.0,-84.823338],[-45.0,-84.823338],[-60.0,-84.823338],[-67.5,-86.549597]]]}},{"type":"Feature","properties":{"cell":"S446","resolution":3,"kind":"compact"},"geometry":{"type":"Polygon","coordinates":[[[67.5,-86.549597],[90.0,-88.27501],[112.5,-86.549597],[120.0,-84.823338],[105.0,-84.823338],[90.0,-84.823338],[75.0,-84.823338],[60.0,-84.823338],[67.5,-86.549597]]]}},{"type":"Feature","properties":{"cell":"S447","resolution":3,"kind":"compact"},"geometry":{"type":"Polygon","coordinates":[[[22.5,-86.549597],[0.0,-88.27501],[45.0,-88.27501],[90.0,-88.27501],[67.5,-86.549597],[60.0,-84.823338],[45.0,-84.823338],[30.0,-84.823338],[22.5,-86.549597]]]}},{"type":"Feature","properties":{"cell":"S448","resolution":3,"kind":"compact"},"geometry":{"type":"Polygon","coordinates":[[[-22.5,-86.549597],[0.0,-88.27501],[22.5,-86.549597],[30.0,-84.823338],[15.0,-84.823338],[0.0,-84.823338],[-15.0,-84.823338],[-30.0,-84.823338],[-22.5,-86.549597]]]}},{"type":"Feature","properties":{"cell":"S456","resolution":3,"kind":"compact"},"geometry":{"type":"Polygon","coordinates":[[[-33.75,-83.095808],[-30.0,-84.823338],[-15.0,-84.823338],[0.0,-84.823338],[-11.25,-83.095808],[-18.0,-81.366579],[-27.0,-81.366579],[-36.0,-81.366579],[-33.75,-83.095808]]]}},{"type":"Feature","properties":{"cell":"S480","resolution":3,"kind":"compact"},"geometry":{"type":"Polygon","coordinates":[[[-11.25,-83.095808],[0.0,-84.823338],[11.25,-83.095808],[18.0,-81.366579],[9.0,-81.366579],[0.0,-81.366579],[-9.0,-81.366579],[-18.0,-81.366579],[-11.25,-83.095808]]]}},{"type":"Feature","properties":{"cell":"S4177","resolution":4,"kind":"compact"},"geometry":{"type":"Polygon","coordinates":[[[-139.5,-84.247657],[-140.0,-84.823338],[-135.0,-84.823338],[-130.0,-84.823338],[-130.5,-84.247657],[-130.909091,-83.671818],[-135.0,-83.671818],[-139.090909,-83.671818],[-139.5,-84.247657]]]}},{"type":"Feature","properties":{"cell":"S4178","resolution":4,"kind":"compact"},"geometry":{"type":"Polygon","coordinates":[[[-130.5,-84.247657],[-130.0,-84.823338],[-125.0,-84.823338],[-120.0,-84.823338],[-121.5,-84.247657],[-122.727273,-83.671818],[-126.818182,-83.671818],[-130.909091,-83.671818],[-130.5,-84.247657]]]}},{"type":"Feature","properties":{"cell":"S4325","resolution":4,"kind":"compact"},"geometry":{"type":"Polygon","coordinates":[[[157.5,-84.247657],[160.0,-84.823338],[165.0,-84.823338],[170.0,-84.823338],[166.5,-84.247657],[163.636364,-83.671818],[159.545455,-83.671818],[155.454545,-83.671818],[157.5,-84.247657]]]}},{"type":"Feature","properties":{"cell":"S4328","resolution":4,"kind":"compact"},"geometry":{"type":"Polygon","coordinates":[[[148.5,-84.247657],[150.0,-84.823338],[155.0,-84.823338],[160.0,-84.823338],[157.5,-84.247657],[155.454545,-83.671818],[151.363636,-83.671818],[147.272727,-83.671818],[148.5,-84.247657]]]}},{"type":"Feature","properties":{"cell":"S4400","resolution":4,"kind":"compact"},"geometry":{"type":"MultiPolygon","coordinates":[[[[-180.0,-85.974292],[-180.0,-85.974292],[-174.375,-85.398878],[-170.0,-84.823338],[-175.0,-84.823338],[-180.0,-84.823338],[-180.0,-84.823338],[-180.0,-85.974292]]],[[[174.375,-85.398878],[180.0,-85.974292],[180.0,-84.823338],[175.0,-84.823338],[170.0,-84.823338],[174.375,-85.398878]]]]}},{"type":"Feature","properties":{"cell":"S4403","resolution":4,"kind":"compact"},"geometry":{"type":"Polygon","coordinates":[[[163.125,-85.398878],[167.142857,-85.974292],[173.571429,-85.974292],[180.0,-85.974292],[174.375,-85.398878],[170.0,-84.823338],[165.0,-84.823338],[160.0,-84.823338],[163.125,-85.398878]]]}},{"type":"Feature","properties":{"cell":"S4404","resolution":4,"kind":"compact"},"geometry":{"type":"MultiPolygon","coordinates":[[[[-180.0,-87.124807],[-180.0,-87.124807],[-172.5,-86.549597],[-167.142857,-85.974292],[-173.571429,-85.974292],[-180.0,-85.974292],[-180.0,-85.974292],[-180.0,-87.124807]]],[[[172.5,-86.549597],[180.0,-87.124807],[180.0,-85.974292],[173.571429,-85.974292],[167.142857,-85.974292],[172.5,-86.549597]]]]}},{"type":"Feature","properties":{"cell":"S4405","resolution":4,"kind":"compact"},"geometry":{"type":"Polygon","coordinates":[[[-172.5,-86.549597],[-180.0,-87.124807],[-171.0,-87.124807],[-162.0,-87.124807],[-157.5,-86.549597],[-154.285714,-85.974292],[-160.714286,-85.974292],[-167.142857,-85.974292],[-172.5,-86.549597]]]}},{"type":"Feature","properties":{"cell":"S4406","resolution":4,"kind":"compact"},"geometry":{"type":"Polygon","coordinates":[[[151.875,-85.398878],[154.285714,-85.974292],[160.714286,-85.974292],[167.142857,-85.974292],[163.125,-85.398878],[160.0,-84.823338],[155.0,-84.823338],[150.0,-84.823338],[151.875,-85.398878]]]}},{"type":"Feature","properties":{"cell":"S4407","resolution":4,"kind":"compact"},"geometry":{"type":"Polygon","coordinates":[[[157.5,-86.549597],[162.0,-87.124807],[171.0,-87.124807],[180.0,-87.124807],[180.0,-87.124807],[172.5,-86.549597],[167.142857,-85.974292],[160.714286,-85.974292],[154.285714,-85.974292],[157.5,-86.549597]]]}},{"type":"Feature","properties":{"cell":"S4408","resolution":4,"kind":"compact"},"geometry":{"type":"MultiPolygon","coordinates":[[[[-180.0,-88.27501],[-180.0,-88.27501],[-168.75,-87.69994],[-162.0,-87.124807],[-171.0,-87.124807],[-180.0,-87.124807],[-180.0,-87.124807],[-180.0,-88.27501]]],[[[168.75,-87.69994],[180.0,-88.27501],[180.0,-87.124807],[171.0,-87.124807],[162.0,-87.124807],[168.75,-87.69994]]]]}},{"type":"Feature","properties":{"cell":"S4411","resolution":4,"kind":"compact"},"geometry":{"type":"Polygon","coordinates":[[[-140.625,-85.398878],[-141.428571,-85.974292],[-135.0,-85.974292],[-128.571429,-85.974292],[-129.375,-85.398878],[-130.0,-84.823338],[-135.0,-84.823338],[-140.0,-84.823338],[-140.625,-85.398878]]]}},{"type":"Feature","properties":{"cell":"S4412","resolution":4,"kind":"compact"},"geometry":{"type":"Polygon","coordinates":[[[-129.375,-85.398878],[-128.571429,-85.974292],[-122.142857,-85.974292],[-115.714286,-85.974292],[-118.125,-85.398878],[-120.0,-84.823338],[-125.0,-84.823338],[-130.0,-84.823338],[-129.375,-85.398878]]]}},{"type":"Feature","properties":{"cell":"S4413","resolution":4,"kind":"compact"},"geometry":{"type":"Polygon","coordinates":[[[-157.5,-86.549597],[-162.0,-87.124807],[-153.0,-87.124807],[-144.0,-87.124807],[-142.5,-86.549597],[-141.428571,-85.974292],[-147.857143,-85.974292],[-154.285714,-85.974292],[-157.5,-86.549597]]]}},{"type":"Feature","properties":{"cell":"S4414","resolution":4,"kind":"compact"},"geometry":{"type":"Polygon","coordinates":[[[-142.5,-86.549597],[-144.0,-87.124807],[-135.0,-87.124807],[-126.0,-87.124807],[-127.5,-86.549597],[-128.571429,-85.974292],[-135.0,-85.974292],[-141.428571,-85.974292],[-142.5,-86.549597]]]}},{"type":"Feature","properties":{"cell":"S4415","resolution":4,"kind":"compact"},"geometry":{"type":"Polygon","coordinates":[[[-127.5,-86.549597],[-126.0,-87.124807],[-117.0,-87.124807],[-108.0,-87.124807],[-112.5,-86.549597],[-115.714286,-85.974292],[-122.142857,-85.974292],[-128.571429,-85.974292],[-127.5,-86.549597]]]}},{"type":"Feature","properties":{"cell":"S4416","resolution":4,"kind":"compact"},"geometry":{"type":"Polygon","coordinates":[[[-168.75,-87.69994],[-180.0,-88.27501],[-165.0,-88.27501],[-150.0,-88.27501],[-146.25,-87.69994],[-144.0,-87.124807],[-153.0,-87.124807],[-162.0,-87.124807],[-168.75,-87.69994]]]}},{"type":"Feature","properties":{"cell":"S4417","resolution":4,"kind":"compact"},"geometry":{"type":"Polygon","coordinates":[[[-146.25,-87.69994],[-150.0,-88.27501],[-135.0,-88.27501],[-120.0,-88.27501],[-123.75,-87.69994],[-126.0,-87.124807],[-135.0,-87.124807],[-144.0,-87.124807],[-146.25,-87.69994]]]}},{"type":"Feature","properties":{"cell":"S4418","resolution":4,"kind":"compact"},"geometry":{"type":"Polygon","coordinates":[[[-123.75,-87.69994],[-120.0,-88.27501],[-105.0,-88.27501],[-90.0,-88.27501],[-101.25,-87.69994],[-108.0,-87.124807],[-117.0,-87.124807],[-126.0,-87.124807],[-123.75,-87.69994]]]}},{"type":"Feature","properties":{"cell":"S4500","resolution":4,"kind":"compact"},"geometry":{"type":"Polygon","coordinates":[[[-85.5,-84.247657],[-90.0,-84.823338],[-85.0,-84.823338],[-80.0,-84.823338],[-76.5,-84.247657],[-73.636364,-83.671818],[-77.727273,-83.671818],[-81.818182,-83.671818],[-85.5,-84.247657]]]}},{"type":"Feature","properties":{"cell":"S4503","resolution":4,"kind":"compact"},"geometry":{"type":"Polygon","coordinates":[[[-76.5,-84.247657],[-80.0,-84.823338],[-75.0,-84.823338],[-70.0,-84.823338],[-67.5,-84.247657],[-65.454545,-83.671818],[-69.545455,-83.671818],[-73.636364,-83.671818],[-76.5,-84.247657]]]}},{"type":"Feature","properties":{"cell":"S4506","resolution":4,"kind":"compact"},"geometry":{"type":"Polygon","coordinates":[[[-67.5,-84.247657],[-70.0,-84.823338],[-65.0,-84.823338],[-60.0,-84.823338],[-58.5,-84.247657],[-57.272727,-83.671818],[-61.363636,-83.671818],[-65.454545,-83.671818],[-67.5,-84.247657]]]}},{"type":"Feature","properties":{"cell":"S4530","resolution":4,"kind":"compact"},"geometry":{"type":"Polygon","coordinates":[[[-58.5,-84.247657],[-60.0,-84.823338],[-55.0,-84.823338],[-50.0,-84.823338],[-49.5,-84.247657],[-49.090909,-83.671818],[-53.181818,-83.671818],[-57.272727,-83.671818],[-58.5,-84.247657]]]}},{"type":"Feature","properties":{"cell":"S4533","resolution":4,"kind":"compact"},"geometry":{"type":"Polygon","coordinates":[[[-49.5,-84.247657],[-50.0,-84.823338],[-45.0,-84.823338],[-40.0,-84.823338],[-40.5,-84.247657],[-40.909091,-83.671818],[-45.0,-83.671818],[-49.090909,-83.671818],[-49.5,-84.247657]]]}},{"type":"Feature","properties":{"cell":"S4536","resolution":4,"kind":"compact"},"geometry":{"type":"Polygon","coordinates":[[[-40.5,-84.247657],[-40.0,-84.823338],[-35.0,-84.823338],[-30.0,-84.823338],[-31.5,-84.247657],[-32.727273,-83.671818],[-36.818182,-83.671818],[-40.909091,-83.671818],[-40.5,-84.247657]]]}},{"type":"Feature","properties":{"cell":"S40888","resolution":5,"kind":"compact"},"geometry":{"type":"MultiPolygon","coordinates":[[[[-180.0,-84.823338],[-180.0,-84.823338],[-178.392857,-84.63146],[-176.896552,-84.439567],[-178.448276,-84.439567],[-180.0,-84.439567],[-180.0,-84.823338]]],[[[178.392857,-84.63146],[180.0,-84.823338],[180.0,-84.439567],[178.448276,-84.439567],[176.896552,-84.439567],[178.392857,-84.63146]]]]}},{"type":"Feature","properties":{"cell":"S41666","resolution":5,"kind":"compact"},"geometry":{"type":"Polygon","coordinates":[[[-178.392857,-84.63146],[-180.0,-84.823338],[-178.333333,-84.823338],[-176.666667,-84.823338],[-175.178571,-84.63146],[-173.793103,-84.439567],[-175.344828,-84.439567],[-176.896552,-84.439567],[-178.392857,-84.63146]]]}},{"type":"Feature","properties":{"cell":"S41667","resolution":5,"kind":"compact"},"geometry":{"type":"Polygon","coordinates":[[[-175.178571,-84.63146],[-176.666667,-84.823338],[-175.0,-84.823338],[-173.333333,-84.823338],[-171.964286,-84.63146],[-170.689655,-84.439567],[-172.241379,-84.439567],[-173.793103,-84.439567],[-175.178571,-84.63146]]]}},{"type":"Feature","properties":{"cell":"S41668","resolution":5,"kind":"compact"},"geometry":{"type":"Polygon","coordinates":[[[-171.964286,-84.63146],[-173.333333,-84.823338],[-171.666667,-84.823338],[-170.0,-84.823338],[-168.75,-84.63146],[-167.586207,-84.439567],[-169.137931,-84.439567],[-170.689655,-84.439567],[-171.964286,-84.63146]]]}},{"type":"Feature","properties":{"cell":"S41768","resolution":5,"kind":"compact"},"geometry":{"type":"Polygon","coordinates":[[[-143.035714,-84.63146],[-143.333333,-84.823338],[-141.666667,-84.823338],[-140.0,-84.823338],[-139.821429,-84.63146],[-139.655172,-84.439567],[-141.206897,-84.439567],[-142.758621,-84.439567],[-143.035714,-84.63146]]]}},{"type":"Feature","properties":{"cell":"S43222","resolution":5,"kind":"compact"},"geometry":{"type":"Polygon","coordinates":[[[175.178571,-84.63146],[176.666667,-84.823338],[178.333333,-84.823338],[180.0,-84.823338],[180.0,-84.823338],[178.392857,-84.63146],[176.896552,-84.439567],[175.344828,-84.439567],[173.793103,-84.439567],[175.178571,-84.63146]]]}},{"type":"Feature","properties":{"cell":"S43225","resolution":5,"kind":"compact"},"geometry":{"type":"Polygon","coordinates":[[[171.964286,-84.63146],[173.333333,-84.823338],[175.0,-84.823338],[176.666667,-84.823338],[175.178571,-84.63146],[173.793103,-84.439567],[172.241379,-84.439567],[170.689655,-84.439567],[171.964286,-84.63146]]]}},{"type":"Feature","properties":{"cell":"S43228","resolution":5,"kind":"compact"},"geometry":{"type":"Polygon","coordinates":[[[168.75,-84.63146],[170.0,-84.823338],[171.666667,-84.823338],[173.333333,-84.823338],[171.964286,-84.63146],[170.689655,-84.439567],[169.137931,-84.439567],[167.586207,-84.439567],[168.75,-84.63146]]]}},{"type":"Feature","properties":{"cell":"S44010","resolution":5,"kind":"compact"},"geometry":{"type":"Polygon","coordinates":[[[-171.346154,-85.015199],[-172.8,-85.207046],[-171.0,-85.207046],[-169.2,-85.207046],[-167.884615,-85.015199],[-166.666667,-84.823338],[-168.333333,-84.823338],[-170.0,-84.823338],[-171.346154,-85.015199]]]}},{"type":"Feature","properties":{"cell":"S44011","resolution":5,"kind":"compact"},"geometry":{"type":"Polygon","coordinates":[[[-167.884615,-85.015199],[-169.2,-85.207046],[-167.4,-85.207046],[-165.6,-85.207046],[-164.423077,-85.015199],[-163.333333,-84.823338],[-165.0,-84.823338],[-166.666667,-84.823338],[-167.884615,-85.015199]]]}},{"type":"Feature","properties":{"cell":"S44013","resolution":5,"kind":"compact"},"geometry":{"type":"Polygon","coordinates":[[[-174.375,-85.398878],[-176.086957,-85.590696],[-174.130435,-85.590696],[-172.173913,-85.590696],[-170.625,-85.398878],[-169.2,-85.207046],[-171.0,-85.207046],[-172.8,-85.207046],[-174.375,-85.398878]]]}},{"type":"Feature","properties":{"cell":"S44014","resolution":5,"kind":"compact"},"geometry":{"type":"Polygon","coordinates":[[[-170.625,-85.398878],[-172.173913,-85.590696],[-170.217391,-85.590696],[-168.26087,-85.590696],[-166.875,-85.398878],[-165.6,-85.207046],[-167.4,-85.207046],[-169.2,-85.207046],[-170.625,-85.398878]]]}},{"type":"Feature","properties":{"cell":"S44015","resolution":5,"kind":"compact"},"geometry":{"type":"Polygon","coordinates":[[[-166.875,-85.398878],[-168.26087,-85.590696],[-166.304348,-85.590696],[-164.347826,-85.590696],[-163.125,-85.398878],[-162.0,-85.207046],[-163.8,-85.207046],[-165.6,-85.207046],[-166.875,-85.398878]]]}},{"type":"Feature","properties":{"cell":"S44016","resolution":5,"kind":"compact"},"geometry":{"type":"Polygon","coordinates":[[[-177.954545,-85.7825],[-180.0,-85.974292],[-177.857143,-85.974292],[-175.714286,-85.974292],[-173.863636,-85.7825],[-172.173913,-85.590696],[-174.130435,-85.590696],[-176.086957,-85.590696],[-177.954545,-85.7825]]]}},{"type":"Feature","properties":{"cell":"S44017","resolution":5,"kind":"compact"},"geometry":{"type":"Polygon","coordinates":[[[-173.863636,-85.7825],[-175.714286,-85.974292],[-173.571429,-85.974292],[-171.428571,-85.974292],[-169.772727,-85.7825],[-168.26087,-85.590696],[-170.217391,-85.590696],[-172.173913,-85.590696],[-173.863636,-85.7825]]]}},{"type":"Feature","properties":{"cell":"S44018","resolution":5,"kind":"compact"},"geometry":{"type":"Polygon","coordinates":[[[-169.772727,-85.7825],[-171.428571,-85.974292],[-169.285714,-85.974292],[-167.142857,-85.974292],[-165.681818,-85.7825],[-164.347826,-85.590696],[-166.304348,-85.590696],[-168.26087,-85.590696],[-169.772727,-85.7825]]]}},{"type":"Feature","properties":{"cell":"S44023","resolution":5,"kind":"compact"},"geometry":{"type":"Polygon","coordinates":[[[-163.125,-85.398878],[-164.347826,-85.590696],[-162.391304,-85.590696],[-160.434783,-85.590696],[-159.375,-85.398878],[-158.4,-85.207046],[-160.2,-85.207046],[-162.0,-85.207046],[-163.125,-85.398878]]]}},{"type":"Feature","properties":{"cell":"S44024","resolution":5,"kind":"compact"},"geometry":{"type":"Polygon","coordinates":[[[-159.375,-85.398878],[-160.434783,-85.590696],[-158.478261,-85.590696],[-156.521739,-85.590696],[-155.625,-85.398878],[-154.8,-85.207046],[-156.6,-85.207046],[-158.4,-85.207046],[-159.375,-85.398878]]]}},{"type":"Feature","properties":{"cell":"S44025","resolution":5,"kind":"compact"},"geometry":{"type":"Polygon","coordinates":[[[-155.625,-85.398878],[-156.521739,-85.590696],[-154.565217,-85.590696],[-152.608696,-85.590696],[-151.875,-85.398878],[-151.2,-85.207046],[-153.0,-85.207046],[-154.8,-85.207046],[-155.625,-85.398878]]]}},{"type":"Feature","properties":{"cell":"S44026","resolution":5,"kind":"compact"},"geometry":{"type":"Polygon","coordinates":[[[-165.681818,-85.7825],[-167.142857,-85.974292],[-165.0,-85.974292],[-162.857143,-85.974292],[-161.590909,-85.7825],[-160.434783,-85.590696],[-162.391304,-85.590696],[-164.347826,-85.590696],[-165.681818,-85.7825]]]}},{"type":"Feature","properties":{"cell":"S44027","resolution":5,"kind":"compact"},"geometry":{"type":"Polygon","coordinates":[[[-161.590909,-85.7825],[-162.857143,-85.974292],[-160.714286,-85.974292],[-158.571429,-85.974292],[-157.5,-85.7825],[-156.521739,-85.590696],[-158.478261,-85.590696],[-160.434783,-85.590696],[-161.590909,-85.7825]]]}},{"type":"Feature","properties":{"cell":"S44028","resolution":5,"kind":"compact"},"geometry":{"type":"Polygon","coordinates":[[[-157.5,-85.7825],[-158.571429,-85.974292],[-156.428571,-85.974292],[-154.285714,-85.974292],[-153.409091,-85.7825],[-152.608696,-85.590696],[-154.565217,-85.590696],[-156.521739,-85.590696],[-157.5,-85.7825]]]}},{"type":"Feature","properties":{"cell":"S44102","resolution":5,"kind":"compact"},"geometry":{"type":"Polygon","coordinates":[[[-143.653846,-85.015199],[-144.0,-85.207046],[-142.2,-85.207046],[-140.4,-85.207046],[-140.192308,-85.015199],[-140.0,-84.823338],[-141.666667,-84.823338],[-143.333333,-84.823338],[-143.653846,-85.015199]]]}},{"type":"Feature","properties":{"cell":"S44105","resolution":5,"kind":"compact"},"geometry":{"type":"Polygon","coordinates":[[[-144.375,-85.398878],[-144.782609,-85.590696],[-142.826087,-85.590696],[-140.869565,-85.590696],[-140.625,-85.398878],[-140.4,-85.207046],[-142.2,-85.207046],[-144.0,-85.207046],[-144.375,-85.398878]]]}},{"type":"Feature","properties":{"cell":"S44106","resolution":5,"kind":"compact"},"geometry":{"type":"Polygon","coordinates":[[[-153.409091,-85.7825],[-154.285714,-85.974292],[-152.142857,-85.974292],[-150.0,-85.974292],[-149.318182,-85.7825],[-148.695652,-85.590696],[-150.652174,-85.590696],[-152.608696,-85.590696],[-153.409091,-85.7825]]]}},{"type":"Feature","properties":{"cell":"S44107","resolution":5,"kind":"compact"},"geometry":{"type":"Polygon","coordinates":[[[-149.318182,-85.7825],[-150.0,-85.974292],[-147.857143,-85.974292],[-145.714286,-85.974292],[-145.227273,-85.7825],[-144.782609,-85.590696],[-146.73913,-85.590696],[-148.695652,-85.590696],[-149.318182,-85.7825]]]}},{"type":"Feature","properties":{"cell":"S44108","resolution":5,"kind":"compact"},"geometry":{"type":"Polygon","coordinates":[[[-145.227273,-85.7825],[-145.714286,-85.974292],[-143.571429,-85.974292],[-141.428571,-85.974292],[-141.136364,-85.7825],[-140.869565,-85.590696],[-142.826087,-85.590696],[-144.782609,-85.590696],[-145.227273,-85.7825]]]}},{"type":"Feature","properties":{"cell":"S416766","resolution":6,"kind":"compact"},"geometry":{"type":"Polygon","coordinates":[[[-169.573171,-84.75938],[-170.0,-84.823338],[-169.444444,-84.823338],[-168.888889,-84.823338],[-168.47561,-84.75938],[-168.072289,-84.695421],[-168.614458,-84.695421],[-169.156627,-84.695421],[-169.573171,-84.75938]]]}},{"type":"Feature","properties":{"cell":"S416767","resolution":6,"kind":"compact"},"geometry":{"type":"Polygon","coordinates":[[[-168.47561,-84.75938],[-168.888889,-84.823338],[-168.333333,-84.823338],[-167.777778,-84.823338],[-167.378049,-84.75938],[-166.987952,-84.695421],[-167.53012,-84.695421],[-168.072289,-84.695421],[-168.47561,-84.75938]]]}},{"type":"Feature","properties":{"cell":"S416768","resolution":6,"kind":"compact"},"geometry":{"type":"Polygon","coordinates":[[[-167.378049,-84.75938],[-167.777778,-84.823338],[-167.222222,-84.823338],[-166.666667,-84.823338],[-166.280488,-84.75938],[-165.903614,-84.695421],[-166.445783,-84.695421],[-166.987952,-84.695421],[-167.378049,-84.75938]]]}},{"type":"Feature","properties":{"cell":"S416776","resolution":6,"kind":"compact"},"geometry":{"type":"Polygon","coordinates":[[[-166.280488,-84.75938],[-166.666667,-84.823338],[-166.111111,-84.823338],[-165.555556,-84.823338],[-165.182927,-84.75938],[-164.819277,-84.695421],[-165.361446,-84.695421],[-165.903614,-84.695421],[-166.280488,-84.75938]]]}},{"type":"Feature","properties":{"cell":"S416777","resolution":6,"kind":"compact"},"geometry":{"type":"Polygon","coordinates":[[[-165.182927,-84.75938],[-165.555556,-84.823338],[-165.0,-84.823338],[-164.444444,-84.823338],[-164.085366,-84.75938],[-163.73494,-84.695421],[-164.277108,-84.695421],[-164.819277,-84.695421],[-165.182927,-84.75938]]]}},{"type":"Feature","properties":{"cell":"S416778","resolution":6,"kind":"compact"},"geometry":{"type":"Polygon","coordinates":[[[-164.085366,-84.75938],[-164.444444,-84.823338],[-163.888889,-84.823338],[-163.333333,-84.823338],[-162.987805,-84.75938],[-162.650602,-84.695421],[-163.192771,-84.695421],[-163.73494,-84.695421],[-164.085366,-84.75938]]]}},{"type":"Feature","properties":{"cell":"S416888","resolution":6,"kind":"compact"},"geometry":{"type":"Polygon","coordinates":[[[-150.914634,-84.75938],[-151.111111,-84.823338],[-150.555556,-84.823338],[-150.0,-84.823338],[-149.817073,-84.75938],[-149.638554,-84.695421],[-150.180723,-84.695421],[-150.722892,-84.695421],[-150.914634,-84.75938]]]}},{"type":"Feature","properties":{"cell":"S417666","resolution":6,"kind":"compact"},"geometry":{"type":"Polygon","coordinates":[[[-149.817073,-84.75938],[-150.0,-84.823338],[-149.444444,-84.823338],[-148.888889,-84.823338],[-148.719512,-84.75938],[-148.554217,-84.695421],[-149.096386,-84.695421],[-149.638554,-84.695421],[-149.817073,-84.75938]]]}},{"type":"Feature","properties":{"cell":"S440120","resolution":6,"kind":"compact"},"geometry":{"type":"Polygon","coordinates":[[[-163.6875,-84.887293],[-164.050633,-84.951247],[-163.481013,-84.951247],[-162.911392,-84.951247],[-162.5625,-84.887293],[-162.222222,-84.823338],[-162.777778,-84.823338],[-163.333333,-84.823338],[-163.6875,-84.887293]]]}},{"type":"Feature","properties":{"cell":"S440123","resolution":6,"kind":"compact"},"geometry":{"type":"Polygon","coordinates":[[[-164.423077,-85.015199],[-164.805195,-85.07915],[-164.220779,-85.07915],[-163.636364,-85.07915],[-163.269231,-85.015199],[-162.911392,-84.951247],[-163.481013,-84.951247],[-164.050633,-84.951247],[-164.423077,-85.015199]]]}},{"type":"Feature","properties":{"cell":"S440124","resolution":6,"kind":"compact"},"geometry":{"type":"Polygon","coordinates":[[[-163.269231,-85.015199],[-163.636364,-85.07915],[-163.051948,-85.07915],[-162.467532,-85.07915],[-162.115385,-85.015199],[-161.772152,-84.951247],[-162.341772,-84.951247],[-162.911392,-84.951247],[-163.269231,-85.015199]]]}},{"type":"Feature","properties":{"cell":"S440125","resolution":6,"kind":"compact"},"geometry":{"type":"Polygon","coordinates":[[[-162.115385,-85.015199],[-162.467532,-85.07915],[-161.883117,-85.07915],[-161.298701,-85.07915],[-160.961538,-85.015199],[-160.632911,-84.951247],[-161.202532,-84.951247],[-161.772152,-84.951247],[-162.115385,-85.015199]]]}},{"type":"Feature","properties":{"cell":"S440126","resolution":6,"kind":"compact"},"geometry":{"type":"Polygon","coordinates":[[[-165.197368,-85.143098],[-165.6,-85.207046],[-165.0,-85.207046],[-164.4,-85.207046],[-164.013158,-85.143098],[-163.636364,-85.07915],[-164.220779,-85.07915],[-164.805195,-85.07915],[-165.197368,-85.143098]]]}},{"type":"Feature","properties":{"cell":"S440127","resolution":6,"kind":"compact"},"geometry":{"type":"Polygon","coordinates":[[[-164.013158,-85.143098],[-164.4,-85.207046],[-163.8,-85.207046],[-163.2,-85.207046],[-162.828947,-85.143098],[-162.467532,-85.07915],[-163.051948,-85.07915],[-163.636364,-85.07915],[-164.013158,-85.143098]]]}},{"type":"Feature","properties":{"cell":"S440128","resolution":6,"kind":"compact"},"geometry":{"type":"Polygon","coordinates":[[[-162.828947,-85.143098],[-163.2,-85.207046],[-162.6,-85.207046],[-162.0,-85.207046],[-161.644737,-85.143098],[-161.298701,-85.07915],[-161.883117,-85.07915],[-162.467532,-85.07915],[-162.828947,-85.143098]]]}},{"type":"Feature","properties":{"cell":"S440206","resolution":6,"kind":"compact"},"geometry":{"type":"Polygon","coordinates":[[[-161.644737,-85.143098],[-162.0,-85.207046],[-161.4,-85.207046],[-160.8,-85.207046],[-160.460526,-85.143098],[-160.12987,-85.07915],[-160.714286,-85.07915],[-161.298701,-85.07915],[-161.644737,-85.143098]]]}},{"type":"Feature","properties":{"cell":"S440217","resolution":6,"kind":"compact"},"geometry":{"type":"Polygon","coordinates":[[[-156.907895,-85.143098],[-157.2,-85.207046],[-156.6,-85.207046],[-156.0,-85.207046],[-155.723684,-85.143098],[-155.454545,-85.07915],[-156.038961,-85.07915],[-156.623377,-85.07915],[-156.907895,-85.143098]]]}},{"type":"Feature","properties":{"cell":"S440218","resolution":6,"kind":"compact"},"geometry":{"type":"Polygon","coordinates":[[[-155.723684,-85.143098],[-156.0,-85.207046],[-155.4,-85.207046],[-154.8,-85.207046],[-154.539474,-85.143098],[-154.285714,-85.07915],[-154.87013,-85.07915],[-155.454545,-85.07915],[-155.723684,-85.143098]]]}},{"type":"Feature","properties":{"cell":"S440222","resolution":6,"kind":"compact"},"geometry":{"type":"Polygon","coordinates":[[[-151.3125,-84.887293],[-151.518987,-84.951247],[-150.949367,-84.951247],[-150.379747,-84.951247],[-150.1875,-84.887293],[-150.0,-84.823338],[-150.555556,-84.823338],[-151.111111,-84.823338],[-151.3125,-84.887293]]]}},{"type":"Feature","properties":{"cell":"S440226","resolution":6,"kind":"compact"},"geometry":{"type":"Polygon","coordinates":[[[-154.539474,-85.143098],[-154.8,-85.207046],[-154.2,-85.207046],[-153.6,-85.207046],[-153.355263,-85.143098],[-153.116883,-85.07915],[-153.701299,-85.07915],[-154.285714,-85.07915],[-154.539474,-85.143098]]]}},{"type":"Feature","properties":{"cell":"S440227","resolution":6,"kind":"compact"},"geometry":{"type":"Polygon","coordinates":[[[-153.355263,-85.143098],[-153.6,-85.207046],[-153.0,-85.207046],[-152.4,-85.207046],[-152.171053,-85.143098],[-151.948052,-85.07915],[-152.532468,-85.07915],[-153.116883,-85.07915],[-153.355263,-85.143098]]]}},{"type":"Feature","properties":{"cell":"S441000","resolution":6,"kind":"compact"},"geometry":{"type":"Polygon","coordinates":[[[-150.1875,-84.887293],[-150.379747,-84.951247],[-149.810127,-84.951247],[-149.240506,-84.951247],[-149.0625,-84.887293],[-148.888889,-84.823338],[-149.444444,-84.823338],[-150.0,-84.823338],[-150.1875,-84.887293]]]}},{"type":"Feature","properties":{"cell":"S441003","resolution":6,"kind":"compact"},"geometry":{"type":"Polygon","coordinates":[[[-150.576923,-85.015199],[-150.779221,-85.07915],[-150.194805,-85.07915],[-149.61039,-85.07915],[-149.423077,-85.015199],[-149.240506,-84.951247],[-149.810127,-84.951247],[-150.379747,-84.951247],[-150.576923,-85.015199]]]}},{"type":"Feature","properties":{"cell":"S441006","resolution":6,"kind":"compact"},"geometry":{"type":"Polygon","coordinates":[[[-150.986842,-85.143098],[-151.2,-85.207046],[-150.6,-85.207046],[-150.0,-85.207046],[-149.802632,-85.143098],[-149.61039,-85.07915],[-150.194805,-85.07915],[-150.779221,-85.07915],[-150.986842,-85.143098]]]}},{"type":"Feature","properties":{"cell":"S441007","resolution":6,"kind":"compact"},"geometry":{"type":"Polygon","coordinates":[[[-149.802632,-85.143098],[-150.0,-85.207046],[-149.4,-85.207046],[-148.8,-85.207046],[-148.618421,-85.143098],[-148.441558,-85.07915],[-149.025974,-85.07915],[-149.61039,-85.07915],[-149.802632,-85.143098]]]}},{"type":"Feature","properties":{"cell":"S441018","resolution":6,"kind":"compact"},"geometry":{"type":"Polygon","coordinates":[[[-145.065789,-85.143098],[-145.2,-85.207046],[-144.6,-85.207046],[-144.0,-85.207046],[-143.881579,-85.143098],[-143.766234,-85.07915],[-144.350649,-85.07915],[-144.935065,-85.07915],[-145.065789,-85.143098]]]}},{"type":"Feature","properties":{"cell":"S441030","resolution":6,"kind":"compact"},"geometry":{"type":"Polygon","coordinates":[[[-151.418919,-85.270991],[-151.643836,-85.334935],[-151.027397,-85.334935],[-150.410959,-85.334935],[-150.202703,-85.270991],[-150.0,-85.207046],[-150.6,-85.207046],[-151.2,-85.207046],[-151.418919,-85.270991]]]}},{"type":"Feature","properties":{"cell":"S441031","resolution":6,"kind":"compact"},"geometry":{"type":"Polygon","coordinates":[[[-150.202703,-85.270991],[-150.410959,-85.334935],[-149.794521,-85.334935],[-149.178082,-85.334935],[-148.986486,-85.270991],[-148.8,-85.207046],[-149.4,-85.207046],[-150.0,-85.207046],[-150.202703,-85.270991]]]}},{"type":"Feature","properties":{"cell":"S441033","resolution":6,"kind":"compact"},"geometry":{"type":"Polygon","coordinates":[[[-151.875,-85.398878],[-152.112676,-85.462818],[-151.478873,-85.462818],[-150.84507,-85.462818],[-150.625,-85.398878],[-150.410959,-85.334935],[-151.027397,-85.334935],[-151.643836,-85.334935],[-151.875,-85.398878]]]}},{"type":"Feature","properties":{"cell":"S441034","resolution":6,"kind":"compact"},"geometry":{"type":"Polygon","coordinates":[[[-150.625,-85.398878],[-150.84507,-85.462818],[-150.211268,-85.462818],[-149.577465,-85.462818],[-149.375,-85.398878],[-149.178082,-85.334935],[-149.794521,-85.334935],[-150.410959,-85.334935],[-150.625,-85.398878]]]}},{"type":"Feature","properties":{"cell":"S441036","resolution":6,"kind":"compact"},"geometry":{"type":"Polygon","coordinates":[[[-152.357143,-85.526758],[-152.608696,-85.590696],[-151.956522,-85.590696],[-151.304348,-85.590696],[-151.071429,-85.526758],[-150.84507,-85.462818],[-151.478873,-85.462818],[-152.112676,-85.462818],[-152.357143,-85.526758]]]}},{"type":"Feature","properties":{"cell":"S441037","resolution":6,"kind":"compact"},"geometry":{"type":"Polygon","coordinates":[[[-151.071429,-85.526758],[-151.304348,-85.590696],[-150.652174,-85.590696],[-150.0,-85.590696],[-149.785714,-85.526758],[-149.577465,-85.462818],[-150.211268,-85.462818],[-150.84507,-85.462818],[-151.071429,-85.526758]]]}},{"type":"Feature","properties":{"cell":"S441038","resolution":6,"kind":"compact"},"geometry":{"type":"Polygon","coordinates":[[[-149.785714,-85.526758],[-150.0,-85.590696],[-149.347826,-85.590696],[-148.695652,-85.590696],[-148.5,-85.526758],[-148.309859,-85.462818],[-148.943662,-85.462818],[-149.577465,-85.462818],[-149.785714,-85.526758]]]}},{"type":"Feature","properties":{"cell":"S441041","resolution":6,"kind":"compact"},"geometry":{"type":"Polygon","coordinates":[[[-146.554054,-85.270991],[-146.712329,-85.334935],[-146.09589,-85.334935],[-145.479452,-85.334935],[-145.337838,-85.270991],[-145.2,-85.207046],[-145.8,-85.207046],[-146.4,-85.207046],[-146.554054,-85.270991]]]}},{"type":"Feature","properties":{"cell":"S441042","resolution":6,"kind":"compact"},"geometry":{"type":"Polygon","coordinates":[[[-145.337838,-85.270991],[-145.479452,-85.334935],[-144.863014,-85.334935],[-144.246575,-85.334935],[-144.121622,-85.270991],[-144.0,-85.207046],[-144.6,-85.207046],[-145.2,-85.207046],[-145.337838,-85.270991]]]}},{"type":"Feature","properties":{"cell":"S441043","resolution":6,"kind":"compact"},"geometry":{"type":"Polygon","coordinates":[[[-148.125,-85.398878],[-148.309859,-85.462818],[-147.676056,-85.462818],[-147.042254,-85.462818],[-146.875,-85.398878],[-146.712329,-85.334935],[-147.328767,-85.334935],[-147.945205,-85.334935],[-148.125,-85.398878]]]}},{"type":"Feature","properties":{"cell":"S441044","resolution":6,"kind":"compact"},"geometry":{"type":"Polygon","coordinates":[[[-146.875,-85.398878],[-147.042254,-85.462818],[-146.408451,-85.462818],[-145.774648,-85.462818],[-145.625,-85.398878],[-145.479452,-85.334935],[-146.09589,-85.334935],[-146.712329,-85.334935],[-146.875,-85.398878]]]}},{"type":"Feature","properties":{"cell":"S441045","resolution":6,"kind":"compact"},"geometry":{"type":"Polygon","coordinates":[[[-145.625,-85.398878],[-145.774648,-85.462818],[-145.140845,-85.462818],[-144.507042,-85.462818],[-144.375,-85.398878],[-144.246575,-85.334935],[-144.863014,-85.334935],[-145.479452,-85.334935],[-145.625,-85.398878]]]}},{"type":"Feature","properties":{"cell":"S441046","resolution":6,"kind":"compact"},"geometry":{"type":"Polygon","coordinates":[[[-148.5,-85.526758],[-148.695652,-85.590696],[-148.043478,-85.590696],[-147.391304,-85.590696],[-147.214286,-85.526758],[-147.042254,-85.462818],[-147.676056,-85.462818],[-148.309859,-85.462818],[-148.5,-85.526758]]]}},{"type":"Feature","properties":{"cell":"S441047","resolution":6,"kind":"compact"},"geometry":{"type":"Polygon","coordinates":[[[-147.214286,-85.526758],[-147.391304,-85.590696],[-146.73913,-85.590696],[-146.086957,-85.590696],[-145.928571,-85.526758],[-145.774648,-85.462818],[-146.408451,-85.462818],[-147.042254,-85.462818],[-147.214286,-85.526758]]]}},{"type":"Feature","properties":{"cell":"S441048","resolution":6,"kind":"compact"},"geometry":{"type":"Polygon","coordinates":[[[-145.928571,-85.526758],[-146.086957,-85.590696],[-145.434783,-85.590696],[-144.782609,-85.590696],[-144.642857,-85.526758],[-144.507042,-85.462818],[-145.140845,-85.462818],[-145.774648,-85.462818],[-145.928571,-85.526758]]]}},{"type":"Feature","properties":{"kind":"coast"},"geometry":{"type":"LineString","coordinates":[[-180.0,-84.71338],[-180.0,-84.71338],[-180.0,-84.71338],[-179.942499,-84.721443],[-179.058677,-84.139412],[-177.256772,-84.452933],[-177.140807,-84.417941],[-176.861993,-84.333812],[-176.523952,-84.231811],[-176.230303,-84.143203],[-176.084673,-84.099259],[-175.934101,-84.101591],[-175.829882,-84.117914],[-174.382503,-84.534323],[-173.116559,-84.117914],[-172.889106,-84.061019],[-169.951223,-83.884647],[-168.999989,-84.117914],[-168.530199,-84.23739],[-167.022099,-84.570497],[-164.182144,-84.82521],[-161.929775,-85.138731],[-158.07138,-85.37391],[-155.192253,-85.09956],[-150.942099,-85.295517],[-148.533073,-85.609038],[-145.888918,-85.315102],[-143.107718,-85.040752],[-142.892279,-84.570497],[-146.829068,-84.531274],[-150.060732,-84.296146],[-150.902928,-83.904232],[-153.586201,-83.68869],[-153.409907,-83.23802],[-153.037759,-82.82652],[-152.665637,-82.454192],[-152.861517,-82.042692],[-154.526299,-81.768394],[-155.29018,-81.41565],[-156.83745,-81.102129],[-154.408787,-81.160937],[-152.097662,-81.004151],[-150.648293,-81.337309],[-148.865998,-81.043373],[-147.22075,-80.671045],[-146.417749,-80.337938],[-146.770286,-79.926439],[-148.062947,-79.652089],[-149.531901,-79.358205],[-151.588416,-79.299397],[-153.390322,-79.162248],[-155.329376,-79.064269],[-155.975668,-78.69194],[-157.268302,-78.378419],[-158.051768,-78.025676],[-158.365134,-76.889207],[-157.875474,-76.987238],[-156.974573,-77.300759],[-155.329376,-77.202728],[-153.742832,-77.065579],[-152.920247,-77.496664],[-151.33378,-77.398737],[-150.00195,-77.183143],[-148.748486,-76.908845],[-147.612483,-76.575738],[-146.104409,-76.47776],[-146.143528,-76.105431],[-146.496091,-75.733154],[-146.20231,-75.380411],[-144.909624,-75.204039],[-144.322037,-75.537197],[-142.794353,-75.34124],[-141.638764,-75.086475],[-140.209007,-75.06689],[-138.85759,-74.968911],[-137.5062,-74.733783],[-136.428901,-74.518241],[-135.214583,-74.302699],[-134.431194,-74.361455],[-133.745654,-74.439848],[-132.257168,-74.302699],[-130.925311,-74.479019],[-129.554284,-74.459433],[-128.242038,-74.322284],[-126.890622,-74.420263],[-125.402082,-74.518241],[-124.011496,-74.479019],[-122.562152,-74.498604],[-121.073613,-74.518241],[-119.70256,-74.479019],[-118.684145,-74.185083],[-117.469801,-74.028348],[-116.216312,-74.243891],[-115.021552,-74.067519],[-113.944331,-73.714828],[-113.297988,-74.028348],[-112.945452,-74.38104],[-112.299083,-74.714198],[-111.261059,-74.420263],[-110.066325,-74.79254],[-108.714909,-74.910103],[-107.559346,-75.184454],[-106.149148,-75.125698],[-104.876074,-74.949326],[-103.367949,-74.988497],[-102.016507,-75.125698],[-100.645531,-75.302018],[-100.1167,-74.870933],[-100.763043,-74.537826],[-101.252703,-74.185083],[-102.545337,-74.106742],[-103.113313,-73.734413],[-103.328752,-73.362084],[-103.681289,-72.61753],[-102.917485,-72.754679],[-101.60524,-72.813436],[-100.312528,-72.754679],[-99.13738,-72.911414],[-98.118889,-73.20535],[-97.688037,-73.558041],[-96.336595,-73.616849],[-95.043961,-73.4797],[-93.672907,-73.283743],[-92.439003,-73.166179],[-91.420564,-73.401307],[-90.088733,-73.322914],[-89.226951,-72.558722],[-88.423951,-73.009393],[-87.268337,-73.185764],[-86.014822,-73.087786],[-85.192236,-73.4797],[-83.879991,-73.518871],[-82.665646,-73.636434],[-81.470913,-73.851977],[-80.687447,-73.4797],[-80.295791,-73.126956],[-79.296886,-73.518871],[-77.925858,-73.420892],[-76.907367,-73.636434],[-76.221879,-73.969541],[-74.890049,-73.871614],[-73.852024,-73.65602],[-72.833533,-73.401307],[-71.619215,-73.264157],[-70.209042,-73.146542],[-68.935916,-73.009393],[-67.956622,-72.79385],[-67.369061,-72.480329],[-67.134036,-72.049244],[-67.251548,-71.637745],[-67.56494,-71.245831],[-67.917477,-70.853917],[-68.230843,-70.462055],[-68.485452,-70.109311],[-68.544209,-69.717397],[-68.446282,-69.325535],[-67.976233,-68.953206],[-67.5845,-68.541707],[-67.427843,-68.149844],[-67.62367,-67.718759],[-67.741183,-67.326845],[-67.251548,-66.876175],[-66.703184,-66.58224],[-66.056815,-66.209963],[-65.371327,-65.89639],[-64.568276,-65.602506],[-64.176542,-65.171423],[-63.628152,-64.897073],[-63.001394,-64.642308],[-62.041686,-64.583552],[-61.414928,-64.270031],[-60.709855,-64.074074],[-59.887269,-63.95651],[-59.162585,-63.701745],[-58.594557,-63.388224],[-57.811143,-63.27066],[-57.223582,-63.525425],[-57.59573,-63.858532],[-58.614143,-64.152467]]}}]}
